STARLINK-1979           
1 47577U 21009AF  25070.54133184 -.00002095  00000+0 -12185-3 0  9992
2 47577  53.0543 206.8531 0001558 100.0198 260.0967 15.06390032226138
STARLINK-1980           
1 47578U 21009AG  25070.66062752  .01908094  35573-2  14404-2 0  9992
2 47578  53.0390 162.4179 0010670 349.7106 161.2910 16.15327113227356
STARLINK-1982           
1 47580U 21009AJ  25070.58335648  .00736009  00000+0  27210-1 0  9999
2 47580  53.0546 210.9397 0001146  95.5978 159.7795 15.24841132  5789
STARLINK-1986           
1 47582U 21009AL  25070.57219772 -.00000986  00000+0 -47288-4 0  9999
2 47582  53.0541 211.7149 0001690  84.7781 275.3401 15.06392740226067
STARLINK-1989           
1 47585U 21009AP  25070.58335648  .00430614  00000+0  17506-2 0  9995
2 47585  53.0408 171.2578 0009173 290.1606  60.1545 15.84498087  6029
STARLINK-1991           
1 47587U 21009AR  25070.62105009  .00001581  00000+0  12500-3 0  9995
2 47587  53.0527 201.4942 0001363  81.5219 278.5924 15.06395169226211
STARLINK-1993           
1 47588U 21009AS  25070.54639052 -.00000189  00000+0  61731-5 0  9993
2 47588  53.0536 211.8305 0001329  90.4581 269.6561 15.06398025226068
STARLINK-1994           
1 47589U 21009AT  25070.56482334 -.00000134  00000+0  98808-5 0  9990
2 47589  53.0530 211.7478 0001304  80.5607 279.5530 15.06392888226062
STARLINK-1995           
1 47590U 21009AU  25070.15753663 -.00000040  00000+0  16203-4 0  9997
2 47590  53.0542 233.5771 0001394  88.6163 271.4986 15.06401067225728
STARLINK-1997           
1 47592U 21009AW  25070.45978881  .00001696  00000+0  13275-3 0  9995
2 47592  53.0549 232.2162 0001345  85.2155 274.8987 15.06391676225763
STARLINK-2001           
1 47596U 21009BA  25070.45241972  .00000566  00000+0  56897-4 0  9996
2 47596  53.0541 232.2495 0001007  83.7546 276.3558 15.06399962225767
STARLINK-2002           
1 47597U 21009BB  25070.58335648  .00501709  00000+0  20273-2 0  9997
2 47597  53.0429 195.3732 0010298 278.0679 149.9100 15.84438016  5702
STARLINK-2003           
1 47598U 21009BC  25070.53019078  .00642069  18891-3  14096-2 0  9991
2 47598  53.0432 159.7527 0010592 315.7556 143.1968 15.97471784227407
STARLINK-2005           
1 47600U 21009BE  25070.66395527  .01554138  18211-2  14122-2 0  9990
2 47600  53.0427 143.9314 0011591 344.5345 144.8054 16.12197865227632
STARLINK-2007           
1 47602U 21009BG  25070.58335648  .00165634  00000+0  19692-2 0  9990
2 47602  53.0396 159.6167 0009109 337.8211 131.3838 15.60065376  5962
STARLINK-2021           
1 47604U 21009BJ  25070.54363979  .00000766  00000+0  70337-4 0  9995
2 47604  53.0559 201.8431 0001307  95.4081 264.7057 15.06394333226207
STARLINK-2024           
1 47606U 21009BL  25070.61366325  .00000796  00000+0  72351-4 0  9994
2 47606  53.0530 201.5259 0001666  81.4473 278.6705 15.06392957226216
STARLINK-2025           
1 47607U 21009BM  25070.58335648  .00554654  12911-3  17988-2 0  9993
2 47607  53.0385 157.6183 0010592 301.1281  60.4392 15.90142885  5938
STARLINK-1609           
1 47621U 21012B   25070.26903302 -.00000799  00000+0 -34759-4 0  9993
2 47621  53.0542 263.0729 0001381  93.0345 267.0802 15.06392172224691
STARLINK-1645           
1 47622U 21012C   25070.52977795  .00002284  00000+0  17212-3 0  9993
2 47622  53.0510 261.8938 0001693  98.8398 261.2783 15.06420359225247
STARLINK-1655           
1 47623U 21012D   25070.60861911  .00006280  00000+0  44012-3 0  9993
2 47623  53.0531 196.5481 0001081  95.6660 264.4452 15.06398804226176
STARLINK-1669           
1 47624U 21012E   25070.20452578  .00000493  00000+0  51964-4 0  9990
2 47624  53.0529 243.3626 0001317  94.1944 265.9196 15.06402049224960
STARLINK-1704           
1 47625U 21012F   25070.27177640  .00001393  00000+0  11237-3 0  9990
2 47625  53.0533 263.0497 0001805  98.2942 261.8251 15.06400151225203
STARLINK-1761           
1 47626U 21012G   25070.52335811  .00001312  00000+0  10699-3 0  9997
2 47626  53.0531 261.9347 0001908  85.2129 274.9078 15.06402428225245
STARLINK-1972           
1 47627U 21012H   25070.53397466  .00024408  00000+0  16507-2 0  9997
2 47627  53.0536 166.8887 0001605  87.8883 272.2290 15.06425159226550
STARLINK-1973           
1 47628U 21012J   25070.55928123 -.00000337  00000+0 -37454-5 0  9994
2 47628  53.0542 261.7637 0001474  88.9791 271.1366 15.06392073224738
STARLINK-1974           
1 47629U 21012K   25070.58335648  .00680662  00000+0  12674-1 0  9998
2 47629  53.0544 135.7549 0001352  68.7979 308.5299 15.46154863226506
STARLINK-1983           
1 47630U 21012L   25070.16768353  .00000074  00000+0  23874-4 0  9997
2 47630  53.0539 243.6177 0001276  87.7300 272.3835 15.06398023225453
STARLINK-1992           
1 47632U 21012N   25070.55882841  .00015888  00000+0  10833-2 0  9999
2 47632  53.0536 166.7758 0001803  58.1140 302.0024 15.06392811226565
STARLINK-2009           
1 47633U 21012P   25070.58335648  .00412120  00000+0  19837-2 0  9994
2 47633  53.0399 225.0029 0001052  51.5295 232.9192 15.80976523  5828
STARLINK-2010           
1 47634U 21012Q   25070.55284854 -.00002585  00000+0 -15475-3 0  9991
2 47634  53.0530 261.8034 0001415  92.1050 268.0101 15.06393316225244
STARLINK-2013           
1 47636U 21012S   25070.58335648  .00653513  18467-3  18239-2 0  9995
2 47636  53.0366 195.3118 0009337 287.7744   1.8811 15.93059151  5991
STARLINK-2015           
1 47638U 21012U   25070.50816684  .00022315  00000+0  15115-2 0  9993
2 47638  53.0534 167.0026 0001434 108.7350 251.3795 15.06417452226061
STARLINK-2019           
1 47641U 21012X   25070.55977734  .00009327  00000+0  64410-3 0  9997
2 47641  53.0542 166.7718 0001348  95.6126 264.5017 15.06405974226561
STARLINK-2022           
1 47643U 21012Z   25070.17136208 -.00001249  00000+0 -65012-4 0  9997
2 47643  53.0544 243.5115 0001212  88.2373 271.8755 15.06391825225470
STARLINK-2030           
1 47647U 21012AD  25070.52704920  .00000666  00000+0  63612-4 0  9996
2 47647  53.0538 261.9164 0001315  90.4685 269.6455 15.06392555225259
STARLINK-2031           
1 47648U 21012AE  25070.18609883  .00000060  00000+0  22921-4 0  9997
2 47648  53.0542 243.4485 0001464  85.5652 274.5504 15.06398072225485
STARLINK-2032           
1 47649U 21012AF  25069.85806455  .00000861  00000+0  76707-4 0  9994
2 47649  53.0547 244.9200 0001161  83.2660 276.8461 15.06381576225433
STARLINK-2033           
1 47650U 21012AG  25070.44043048  .00000292  00000+0  38527-4 0  9990
2 47650  53.0561 242.3096 0001445  85.1107 275.0047 15.06394040225507
STARLINK-2035           
1 47651U 21012AH  25070.58335648  .01277971  00000+0  56256-2 0  9994
2 47651  53.0524 248.1883 0000756  87.8694 159.0142 15.81586027224922
STARLINK-2036           
1 47652U 21012AJ  25070.23492978 -.00000979  00000+0 -46883-4 0  9997
2 47652  53.0527 263.2169 0001371  90.4927 269.6219 15.06383362225203
STARLINK-2038           
1 47654U 21012AL  25070.17981984  .00041287  00000+0  94777-3 0  9991
2 47654  53.0544 238.9862 0004574 180.0513 180.0492 15.42317999225547
STARLINK-2039           
1 47655U 21012AM  25070.23216568  .00000896  00000+0  78996-4 0  9995
2 47655  53.0517 263.2388 0001295  83.7364 276.3772 15.06403983225204
STARLINK-2040           
1 47656U 21012AN  25070.44780171  .00000079  00000+0  24232-4 0  9992
2 47656  53.0539 242.2741 0001488  87.4544 272.6615 15.06394835225518
STARLINK-2041           
1 47657U 21012AP  25070.25429195  .00000677  00000+0  64346-4 0  9992
2 47657  53.0548 263.1395 0001667  91.7782 268.3398 15.06395428225202
STARLINK-2043           
1 47659U 21012AR  25070.40542996  .00014048  00000+0  95967-3 0  9995
2 47659  53.0529 142.4643 0001349  85.4560 274.6583 15.06415623226880
STARLINK-2044           
1 47660U 21012AS  25070.60837127  .06009634  12119-4  11405-2 0  9996
2 47660  53.0310  89.6541 0000585 106.7970 348.0990 16.31250737227119
STARLINK-2052           
1 47662U 21012AU  25070.45791909  .00000949  00000+0  82611-4 0  9992
2 47662  53.0548 242.2269 0001413  94.4349 265.6802 15.06392633225524
STARLINK-2053           
1 47663U 21012AV  25070.50955778  .00023741  00000+0  82050-3 0  9996
2 47663  53.0559 146.1283 0000175 260.4134  99.6845 15.29823666226877
STARLINK-2058           
1 47667U 21012AZ  25070.55654673  .00007344  00000+0  51162-3 0  9996
2 47667  53.0540 261.7882 0001389  95.9961 264.1187 15.06382420225237
STARLINK-2059           
1 47668U 21012BA  25070.57930370  .00001588  00000+0  23806-4 0  9999
2 47668  53.0505 213.1762 0001040  84.8306 275.2826 15.61992901225944
STARLINK-2062           
1 47670U 21012BC  25070.58335648  .00445128  86421-4  13910-2 0  9991
2 47670  53.0455 201.9034 0004927 352.9961 185.6247 15.90966094225476
STARLINK-2065           
1 47672U 21012BE  25070.44135483  .00001661  00000+0  13038-3 0  9999
2 47672  53.0548 232.2986 0000715  94.5545 265.5525 15.06390094225635
STARLINK-2078           
1 47675U 21012BH  25069.59196035  .00881132  39003-3  15189-2 0  9992
2 47675  53.0402 206.3615 0001998 333.5353 134.8156 16.01845381225318
STARLINK-2083           
1 47676U 21012BJ  25070.42109211 -.00000287  00000+0 -41402-6 0  9995
2 47676  53.0524 132.3898 0001051 111.9855 248.1246 15.06392035227037
STARLINK-2095           
1 47679U 21012BM  25070.50978448  .00033209  00000+0  16901-2 0  9993
2 47679  53.0447 256.3879 0000423 173.9988 186.1010 15.16545685225330
STARLINK-2068           
1 47722U 21017A   25070.28518983  .00000482  00000+0  51256-4 0  9997
2 47722  53.0557  28.2420 0001389  95.1997 264.9151 15.06403404223213
STARLINK-2107           
1 47723U 21017B   25070.42568301  .00012378  00000+0  84803-3 0  9993
2 47723  53.0541 322.3752 0001746  82.4458 277.6729 15.06417287224117
STARLINK-2116           
1 47724U 21017C   25070.39621080 -.00004523  00000+0 -28508-3 0  9999
2 47724  53.0557 322.5020 0001606  86.8829 273.2344 15.06382826224070
